[{"OBJECT_NAME":"STARLINK-32021","OBJECT_ID":"2024-120P","EPOCH":"2026-03-09T23:39:45.596160","MEAN_MOTION":15.30180565,"ECCENTRICITY":0.00011611,"INCLINATION":53.1608,"RA_OF_ASC_NODE":308.4468,"ARG_OF_PERICENTER":100.2598,"MEAN_ANOMALY":259.8534,"EPHEMERIS_TYPE":0,"CLASSIFICATION_TYPE":"U","NORAD_CAT_ID":60148,"ELEMENT_SET_NO":999,"REV_AT_EPOCH":9664,"BSTAR":5.9935941e-5,"MEAN_MOTION_DOT":1.415e-5,"MEAN_MOTION_DDOT":0},{"OBJECT_NAME":"STARLINK-32022","OBJECT_ID":"2024-120Q","EPOCH":"2026-03-10T01:28:53.069376","MEAN_MOTION":15.30183804,"ECCENTRICITY":0.00010234,"INCLINATION":53.1623,"RA_OF_ASC_NODE":318.1613,"ARG_OF_PERICENTER":69.415,"MEAN_ANOMALY":290.6961,"EPHEMERIS_TYPE":0,"CLASSIFICATION_TYPE":"U","NORAD_CAT_ID":60149,"ELEMENT_SET_NO":999,"REV_AT_EPOCH":9651,"BSTAR":7.0868311e-5,"MEAN_MOTION_DOT":1.739e-5,"MEAN_MOTION_DDOT":0},{"OBJECT_NAME":"STARLINK-32014","OBJECT_ID":"2024-120R","EPOCH":"2026-03-09T22:07:06.044736","MEAN_MOTION":15.30179769,"ECCENTRICITY":0.0001234,"INCLINATION":53.1589,"RA_OF_ASC_NODE":318.707,"ARG_OF_PERICENTER":104.927,"MEAN_ANOMALY":255.1867,"EPHEMERIS_TYPE":0,"CLASSIFICATION_TYPE":"U","NORAD_CAT_ID":60150,"ELEMENT_SET_NO":999,"REV_AT_EPOCH":9641,"BSTAR":-3.4724e-5,"MEAN_MOTION_DOT":-1.387e-5,"MEAN_MOTION_DDOT":0},{"OBJECT_NAME":"STARLINK-32004","OBJECT_ID":"2024-120S","EPOCH":"2026-03-09T22:11:39.344352","MEAN_MOTION":15.30192659,"ECCENTRICITY":0.0001021,"INCLINATION":53.1582,"RA_OF_ASC_NODE":318.7253,"ARG_OF_PERICENTER":99.1385,"MEAN_ANOMALY":260.9731,"EPHEMERIS_TYPE":0,"CLASSIFICATION_TYPE":"U","NORAD_CAT_ID":60151,"ELEMENT_SET_NO":999,"REV_AT_EPOCH":9649,"BSTAR":0.00024793,"MEAN_MOTION_DOT":6.989e-5,"MEAN_MOTION_DDOT":0},{"OBJECT_NAME":"STARLINK-32147","OBJECT_ID":"2024-120T","EPOCH":"2026-03-10T02:11:25.593216","MEAN_MOTION":15.30197906,"ECCENTRICITY":4.537e-5,"INCLINATION":53.1613,"RA_OF_ASC_NODE":318.3424,"ARG_OF_PERICENTER":95.2713,"MEAN_ANOMALY":264.834,"EPHEMERIS_TYPE":0,"CLASSIFICATION_TYPE":"U","NORAD_CAT_ID":60152,"ELEMENT_SET_NO":999,"REV_AT_EPOCH":9643,"BSTAR":0.00021378641,"MEAN_MOTION_DOT":5.978e-5,"MEAN_MOTION_DDOT":0},{"OBJECT_NAME":"STARLINK-32131","OBJECT_ID":"2024-120U","EPOCH":"2026-03-10T01:47:06.707616","MEAN_MOTION":15.30186404,"ECCENTRICITY":0.00011606,"INCLINATION":53.1615,"RA_OF_ASC_NODE":318.236,"ARG_OF_PERICENTER":107.1904,"MEAN_ANOMALY":252.9224,"EPHEMERIS_TYPE":0,"CLASSIFICATION_TYPE":"U","NORAD_CAT_ID":60153,"ELEMENT_SET_NO":999,"REV_AT_EPOCH":9651,"BSTAR":4.9847002e-5,"MEAN_MOTION_DOT":1.117e-5,"MEAN_MOTION_DDOT":0},{"OBJECT_NAME":"STARLINK-32145","OBJECT_ID":"2024-120V","EPOCH":"2026-03-09T23:35:04.193952","MEAN_MOTION":15.30187798,"ECCENTRICITY":9.773e-5,"INCLINATION":53.1599,"RA_OF_ASC_NODE":318.375,"ARG_OF_PERICENTER":96.1743,"MEAN_ANOMALY":263.9369,"EPHEMERIS_TYPE":0,"CLASSIFICATION_TYPE":"U","NORAD_CAT_ID":60154,"ELEMENT_SET_NO":999,"REV_AT_EPOCH":9642,"BSTAR":4.8538598e-5,"MEAN_MOTION_DOT":1.078e-5,"MEAN_MOTION_DDOT":0},{"OBJECT_NAME":"STARLINK-32137","OBJECT_ID":"2024-120W","EPOCH":"2026-03-10T01:33:26.947872","MEAN_MOTION":15.30168819,"ECCENTRICITY":0.00012789,"INCLINATION":53.1602,"RA_OF_ASC_NODE":318.1775,"ARG_OF_PERICENTER":88.4966,"MEAN_ANOMALY":271.6181,"EPHEMERIS_TYPE":0,"CLASSIFICATION_TYPE":"U","NORAD_CAT_ID":60155,"ELEMENT_SET_NO":999,"REV_AT_EPOCH":9643,"BSTAR":-0.00017401355,"MEAN_MOTION_DOT":-5.504e-5,"MEAN_MOTION_DDOT":0},{"OBJECT_NAME":"STARLINK-32048","OBJECT_ID":"2024-120X","EPOCH":"2026-03-10T03:12:02.424960","MEAN_MOTION":15.30199724,"ECCENTRICITY":0.00011156,"INCLINATION":53.1622,"RA_OF_ASC_NODE":317.8925,"ARG_OF_PERICENTER":99.3194,"MEAN_ANOMALY":260.7933,"EPHEMERIS_TYPE":0,"CLASSIFICATION_TYPE":"U","NORAD_CAT_ID":60156,"ELEMENT_SET_NO":999,"REV_AT_EPOCH":9644,"BSTAR":7.85241e-5,"MEAN_MOTION_DOT":1.967e-5,"MEAN_MOTION_DDOT":0},{"OBJECT_NAME":"STARLINK-32129","OBJECT_ID":"2024-120Y","EPOCH":"2026-03-10T02:20:32.497440","MEAN_MOTION":15.30189138,"ECCENTRICITY":0.00010913,"INCLINATION":53.1611,"RA_OF_ASC_NODE":318.3807,"ARG_OF_PERICENTER":81.7923,"MEAN_ANOMALY":278.3201,"EPHEMERIS_TYPE":0,"CLASSIFICATION_TYPE":"U","NORAD_CAT_ID":60157,"ELEMENT_SET_NO":999,"REV_AT_EPOCH":9651,"BSTAR":7.125942e-5,"MEAN_MOTION_DOT":1.751e-5,"MEAN_MOTION_DDOT":0},{"OBJECT_NAME":"STARLINK-11168 [DTC]","OBJECT_ID":"2024-124A","EPOCH":"2026-03-10T12:10:51.339360","MEAN_MOTION":15.69683873,"ECCENTRICITY":0.0001409,"INCLINATION":53.1595,"RA_OF_ASC_NODE":157.1474,"ARG_OF_PERICENTER":50.7108,"MEAN_ANOMALY":309.4035,"EPHEMERIS_TYPE":0,"CLASSIFICATION_TYPE":"U","NORAD_CAT_ID":60183,"ELEMENT_SET_NO":999,"REV_AT_EPOCH":9785,"BSTAR":6.7938e-6,"MEAN_MOTION_DOT":2.33e-6,"MEAN_MOTION_DDOT":0},{"OBJECT_NAME":"STARLINK-11187 [DTC]","OBJECT_ID":"2024-124B","EPOCH":"2026-03-10T12:03:45.924768","MEAN_MOTION":15.69704626,"ECCENTRICITY":0.0001003,"INCLINATION":53.1596,"RA_OF_ASC_NODE":157.1126,"ARG_OF_PERICENTER":69.7893,"MEAN_ANOMALY":290.3233,"EPHEMERIS_TYPE":0,"CLASSIFICATION_TYPE":"U","NORAD_CAT_ID":60184,"ELEMENT_SET_NO":999,"REV_AT_EPOCH":9666,"BSTAR":2.4082e-5,"MEAN_MOTION_DOT":2.329e-5,"MEAN_MOTION_DDOT":0},{"OBJECT_NAME":"STARLINK-11180 [DTC]","OBJECT_ID":"2024-124C","EPOCH":"2026-03-10T11:56:42.429984","MEAN_MOTION":15.69706204,"ECCENTRICITY":0.0001032,"INCLINATION":53.1592,"RA_OF_ASC_NODE":157.0787,"ARG_OF_PERICENTER":116.9075,"MEAN_ANOMALY":243.2049,"EPHEMERIS_TYPE":0,"CLASSIFICATION_TYPE":"U","NORAD_CAT_ID":60185,"ELEMENT_SET_NO":999,"REV_AT_EPOCH":9666,"BSTAR":9.1421e-6,"MEAN_MOTION_DOT":5.19e-6,"MEAN_MOTION_DDOT":0},{"OBJECT_NAME":"STARLINK-11197 [DTC]","OBJECT_ID":"2024-124D","EPOCH":"2026-03-10T11:49:39.462240","MEAN_MOTION":15.69693648,"ECCENTRICITY":0.0001239,"INCLINATION":53.1592,"RA_OF_ASC_NODE":157.0415,"ARG_OF_PERICENTER":105.5402,"MEAN_ANOMALY":254.5753,"EPHEMERIS_TYPE":0,"CLASSIFICATION_TYPE":"U","NORAD_CAT_ID":60186,"ELEMENT_SET_NO":999,"REV_AT_EPOCH":9666,"BSTAR":5.9927e-6,"MEAN_MOTION_DOT":1.37e-6,"MEAN_MOTION_DDOT":0},{"OBJECT_NAME":"STARLINK-11194 [DTC]","OBJECT_ID":"2024-124E","EPOCH":"2026-03-10T11:42:34.979040","MEAN_MOTION":15.69708997,"ECCENTRICITY":0.0001304,"INCLINATION":53.1566,"RA_OF_ASC_NODE":157.0123,"ARG_OF_PERICENTER":118.6146,"MEAN_ANOMALY":241.5003,"EPHEMERIS_TYPE":0,"CLASSIFICATION_TYPE":"U","NORAD_CAT_ID":60187,"ELEMENT_SET_NO":999,"REV_AT_EPOCH":9666,"BSTAR":0.00019524,"MEAN_MOTION_DOT":0.00023129,"MEAN_MOTION_DDOT":0},{"OBJECT_NAME":"STARLINK-11189 [DTC]","OBJECT_ID":"2024-124F","EPOCH":"2026-03-10T10:03:59.238432","MEAN_MOTION":15.69714458,"ECCENTRICITY":0.0001163,"INCLINATION":53.1575,"RA_OF_ASC_NODE":158.0298,"ARG_OF_PERICENTER":79.9064,"MEAN_ANOMALY":280.2085,"EPHEMERIS_TYPE":0,"CLASSIFICATION_TYPE":"U","NORAD_CAT_ID":60188,"ELEMENT_SET_NO":999,"REV_AT_EPOCH":9664,"BSTAR":8.7713e-5,"MEAN_MOTION_DOT":0.00010052,"MEAN_MOTION_DDOT":0}]
