STARLINK-32021          
1 60148U 24120P   26068.98594440  .00001415  00000+0  59936-4 0  9999
2 60148  53.1608 308.4468 0001161 100.2598 259.8534 15.30180565 96646
STARLINK-32022          
1 60149U 24120Q   26069.06172534  .00001739  00000+0  70868-4 0  9992
2 60149  53.1623 318.1613 0001023  69.4150 290.6961 15.30183804 96513
STARLINK-32014          
1 60150U 24120R   26068.92159774 -.00001387  00000+0 -34724-4 0  9991
2 60150  53.1589 318.7070 0001234 104.9270 255.1867 15.30179769 96416
STARLINK-32004          
1 60151U 24120S   26068.92476093  .00006989  00000+0  24793-3 0  9993
2 60151  53.1582 318.7253 0001021  99.1385 260.9731 15.30192659 96494
STARLINK-32147          
1 60152U 24120T   26069.09126844  .00005978  00000+0  21379-3 0  9993
2 60152  53.1613 318.3424 0000453  95.2713 264.8340 15.30197906 96439
STARLINK-32131          
1 60153U 24120U   26069.07438319  .00001117  00000+0  49847-4 0  9997
2 60153  53.1615 318.2360 0001160 107.1904 252.9224 15.30186404 96510
STARLINK-32145          
1 60154U 24120V   26068.98268743  .00001078  00000+0  48539-4 0  9992
2 60154  53.1599 318.3750 0000977  96.1743 263.9369 15.30187798 96428
STARLINK-32137          
1 60155U 24120W   26069.06489523 -.00005504  00000+0 -17401-3 0  9997
2 60155  53.1602 318.1775 0001278  88.4966 271.6181 15.30168819 96437
STARLINK-32048          
1 60156U 24120X   26069.13336140  .00001967  00000+0  78524-4 0  9993
2 60156  53.1622 317.8925 0001115  99.3194 260.7933 15.30199724 96441
STARLINK-32129          
1 60157U 24120Y   26069.09759835  .00001751  00000+0  71259-4 0  9998
2 60157  53.1611 318.3807 0001091  81.7923 278.3201 15.30189138 96512
STARLINK-11168 [DTC]    
1 60183U 24124A   26069.50753865  .00000233  00000+0  67938-5 0  9998
2 60183  53.1595 157.1474 0001409  50.7108 309.4035 15.69683873 97851
STARLINK-11187 [DTC]    
1 60184U 24124B   26069.50261487  .00002329  00000+0  24082-4 0  9993
2 60184  53.1596 157.1126 0001003  69.7893 290.3233 15.69704626 96664
STARLINK-11180 [DTC]    
1 60185U 24124C   26069.49771331  .00000519  00000+0  91421-5 0  9997
2 60185  53.1592 157.0787 0001032 116.9075 243.2049 15.69706204 96668
STARLINK-11197 [DTC]    
1 60186U 24124D   26069.49281785  .00000137  00000+0  59927-5 0  9998
2 60186  53.1592 157.0415 0001239 105.5402 254.5753 15.69693648 96668
STARLINK-11194 [DTC]    
1 60187U 24124E   26069.48790485  .00023129  00000+0  19524-3 0  9993
2 60187  53.1566 157.0123 0001304 118.6146 241.5003 15.69708997 96667
STARLINK-11189 [DTC]    
1 60188U 24124F   26069.41943563  .00010052  00000+0  87713-4 0  9991
2 60188  53.1575 158.0298 0001163  79.9064 280.2085 15.69714458 96640
